{"fetched_at":"2026-03-29T16:36:15Z","count":15609,"tles":[{"name":"2025-274N","line1":"1 66662U 25274N   26087.79476406  .00002683  00000+0  25769-3 0  9992","line2":"2 66662  97.7451  18.4073 0013701 289.2964  70.6774 14.93838063 18236","category":"Other"}]}